COSMOS 1892             
1 18421U 87088A   20358.61845254  .00001017  00000-0  49129-4 0  9998
2 18421  82.5009  86.3109 0016262 126.1186 234.1556 15.17391306813230
SL-14 R/B               
1 18749U 88001B   20358.58341295  .00000121  00000-0  11772-4 0  9997
2 18749  82.5131 180.4031 0019687  38.7346  20.4348 14.83239444759903
COSMOS 1933             
1 18958U 88020A   20358.37228001  .00000155  00000-0  91843-5 0  9991
2 18958  82.5294 303.1444 0010215 222.7372 137.3060 15.03824444763478
SL-3 R/B                
1 19046U 88032B   20358.49931363  .00000240  00000-0  22125-4 0  9999
2 19046  97.3951  11.0887 0034576 283.2042  76.5327 15.02829498765351
SL-16 R/B               
1 19120U 88039B   20358.50324390 -.00000109  00000-0 -28802-4 0  9991
2 19120  71.0144 129.0535 0021412  11.3815 348.7789 14.19216939688470
COSMOS 1953             
1 19210U 88050A   20358.14073919  .00000275  00000-0  16749-4 0  9991
2 19210  82.5174 226.6538 0013130 189.1040 170.9952 15.06125652750069
SL-8 R/B                
1 19257U 88053B   20358.46505983  .00000097  00000-0  41260-4 0  9999
2 19257  74.0491  13.4401 0021640 303.6360 160.1108 14.37495976703167
COSMOS 1975             
1 19573U 88093A   20358.45261078  .00001037  00000-0  70994-4 0  9998
2 19573  82.5185 181.1025 0012688 236.1750 123.8270 15.05017529731934
SL-14 R/B               
1 19574U 88093B   20358.51742406  .00000112  00000-0  10661-4 0  9993
2 19574  82.5320  23.2545 0021177 194.5998 276.8275 14.83350570718898
SL-16 R/B               
1 19650U 88102B   20358.48110316 -.00000220  00000-0 -87342-4 0  9996
2 19650  70.9981 192.4228 0013473  17.3396 342.8184 14.15797602657631
INTERCOSMOS 24          
1 20261U 89080A   20358.42791971  .00000220  00000-0  60553-4 0  9991
2 20261  82.6047 257.9795 1203093  11.8113 350.8697 12.56160685427727
SL-14 R/B               
1 20262U 89080C   20358.39132274  .00000032  00000-0  58895-5 0  9991
2 20262  82.5936 312.8910 1236368 206.2870 147.0074 12.48953338422574
DELTA 2 R/B(1)          
1 20303U 89085B   20358.46592489  .00005063  00000-0  16012-3 0  9990
2 20303  35.6365 262.4847 0091816  57.4564 303.4994 15.28257478697527
DELTA 1 R/B             
1 20323U 89089B   20358.30626565  .00000043  00000-0  20314-4 0  9996
2 20323  97.1148 114.2198 0071548 358.1720   1.9205 14.48375685620207
ARIANE 40 R/B           
1 20443U 90005H   20358.41268142  .00000003  00000-0  15632-4 0  9997
2 20443  98.5540  59.6989 0011255 136.5305 223.6771 14.38110315619279
DELTA 2 R/B(1)          
1 20453U 90008B   20358.32717639  .00002890  00000-0  16248-3 0  9990
2 20453  35.6225 222.3054 0277907  81.9576 281.2570 14.86041455639309
COSMOS 2058             
1 20465U 90010A   20358.41253905  .00000552  00000-0  44303-4 0  9994
2 20465  82.4900  91.5178 0013875 285.2802  74.6887 14.98109003656613
SL-14 R/B               
1 20466U 90010B   20358.19923763  .00000092  00000-0  86774-5 0  9994
2 20466  82.5037 250.1260 0022041  78.3236 282.0450 14.81404688646673
SL-14 R/B               
1 20511U 90018B   20358.30850218  .00000100  00000-0  10145-4 0  9998
2 20511  82.5223 197.2569 0016537 214.5401 318.5316 14.80060095641046
HST                     
1 20580U 90037B   20358.51845653  .00000632  00000-0  27383-4 0  9997
2 20580  28.4687 149.0773 0002627 331.8564  79.0427 15.09517248484513
SL-16 R/B               
1 20625U 90046B   20358.37042870 -.00000229  00000-0 -94157-4 0  9998
2 20625  70.9998 331.6660 0016374 308.7720  51.1939 14.14664497579333
COSMOS 2084             
1 20663U 90055A   20358.44086801  .00000146  00000-0  32077-4 0  9999
2 20663  62.7945 257.1591 0043334 334.0159  25.8758 14.92167271651551
SL-6 R/B(2)             
1 20666U 90055D   20358.19376047  .00000039  00000-0  21813-4 0  9995
2 20666  62.7837 173.9485 0073536  13.6381 346.6676 14.92412680653467
SL-8 R/B                
1 20775U 90078B   20358.45608434  .00002473  00000-0  12017-3 0  9997
2 20775  82.9277  70.7078 0569647 329.0303  27.8407 14.35103714532843
SL-8 R/B                
1 21088U 91006B   20358.50590858 -.00000034  00000-0 -49387-4 0  9997
2 21088  82.9417 144.6758 0021770 324.2910  98.3667 13.77147220502230
OKEAN-3                 
1 21397U 91039A   20358.45144319  .00000421  00000-0  37961-4 0  9990
2 21397  82.5212 357.0354 0016209 256.0010 103.9408 14.93012791580468
COSMOS 2151             
1 21422U 91042A   20358.36287021  .00000274  00000-0  24409-4 0  9990
2 21422  82.5009 103.0941 0013200 327.0772  32.9624 14.92192727579055
SL-14 R/B               
1 21423U 91042B   20358.32066177  .00000092  00000-0  90946-5 0  9992
2 21423  82.4932 200.3841 0017709   5.5479 354.5927 14.79809972571592
ERS-1                   
1 21574U 91050A   20358.43079198  .00000052  00000-0  31984-4 0  9999
2 21574  98.6243 312.0845 0034110  85.2021 275.3059 14.37773889542271
ARIANE 40 R/B           
1 21610U 91050F   20358.48404735  .00000020  00000-0  19967-4 0  9996
2 21610  98.4462  65.6392 0004144  64.2499 306.9241 14.40927817544925
INTERCOSMOS 25          
1 21819U 91086A   20358.44352655 -.00000411  00000-0 -85354-4 0  9994
2 21819  82.5927  13.1235 1515340 229.2349 116.7243 12.05205616267053
SL-8 R/B                
1 21876U 92008B   20358.43331867  .00000018  00000-0  21619-5 0  9999
2 21876  82.9273 241.9474 0035818  47.5662 125.2141 13.75670121447850
SL-8 R/B                
1 21938U 92020B   20358.47646168  .00000093  00000-0  81393-4 0  9996
2 21938  82.9299 126.2442 0028855 203.8337 222.0821 13.75291832439654
COSMOS 2219             
1 22219U 92076A   20358.42983468  .00000292  00000-0  17955-3 0  9995
2 22219  71.0600  32.9408 0019822 229.4948 130.4448 14.13648603449522
SL-16 R/B               
1 22220U 92076B   20358.43025090  .00000007  00000-0  27301-4 0  9997
2 22220  70.9995 233.7736 0010788 119.5883  52.5361 14.16465559452435
COSMOS 2221             
1 22236U 92080A   20358.32433328  .00000332  00000-0  33331-4 0  9995
2 22236  82.5084 285.1720 0018066  57.5480 302.7482 14.87990382497365
SL-16 R/B               
1 22285U 92093B   20358.46755462 -.00000291  00000-0 -12541-3 0  9999
2 22285  71.0222  35.9830 0006102 307.2786  52.7780 14.15051464444074
COSMOS 2228             
1 22286U 92094A   20358.18156256  .00000274  00000-0  26924-4 0  9996
2 22286  82.5206 241.7731 0021207 170.2713 189.8919 14.88209985492513
SL-16 R/B               
1 22566U 93016B   20358.43415220 -.00000121  00000-0 -37707-4 0  9993
2 22566  71.0078 249.0598 0011580 326.9523  33.0875 14.14971813433069
COSMOS 2242             
1 22626U 93024A   20358.31223497  .00000288  00000-0  28483-4 0  9992
2 22626  82.5224 269.8502 0019016 169.2855 190.8772 14.88061534496944
SL-16 R/B               
1 22803U 93059B   20358.47262254 -.00000226  00000-0 -88856-4 0  9992
2 22803  70.9914  60.9250 0019160 233.2588 126.6776 14.16829729410073
ARIANE 40 R/B           
1 22830U 93061H   20358.37913311 -.00000023  00000-0  84803-5 0  9994
2 22830  98.7411  49.0850 0011858 125.8482 234.3803 14.31463044421859
COSMOS 2278             
1 23087U 94023A   20358.50992379  .00000323  00000-0  19558-3 0  9999
2 23087  71.0520 192.4901 0007447  44.6264 315.5457 14.13819354375915
SL-16 R/B               
1 23088U 94023B   20358.47524196  .00000206  00000-0  13201-3 0  9993
2 23088  71.0009 104.3768 0005291 293.1983  66.8581 14.14684594377042
SL-16 R/B               
1 23343U 94074B   20358.39749701  .00000046  00000-0  13882-4 0  9993
2 23343  97.9743  49.4575 0005514 260.1049 110.1092 14.76853903406300
SL-16 R/B               
1 23405U 94077B   20358.48742376  .00000129  00000-0  91042-4 0  9992
2 23405  70.9842  32.9985 0003283 217.9067 142.1825 14.15228966347090
ERS-2                   
1 23560U 95021A   20358.47441314  .00001597  00000-0  70604-4 0  9992
2 23560  98.5530 178.0920 0002364 239.0764 121.0237 15.23544755370895
ARIANE 40+ R/B          
1 23561U 95021B   20358.35796299  .00000042  00000-0  28968-4 0  9995
2 23561  98.7014  40.2173 0007788  59.5413 311.2170 14.38000227345725
SL-16 R/B               
1 23705U 95058B   20358.31796546 -.00000268  00000-0 -11338-3 0  9990
2 23705  71.0206 212.6887 0011080 148.6284 211.5502 14.15142850298693
SL-16 R/B               
1 24298U 96051B   20358.38512738 -.00000141  00000-0 -50237-4 0  9990
2 24298  70.8384 232.2376 0013206  71.9748 288.2810 14.12482176253038
ORBVIEW 2 (SEASTAR)     
1 24883U 97037A   20358.33816825  .00000058  00000-0  36964-4 0  9990
2 24883  98.6271 110.8559 0001229 260.2422  99.8624 14.33587729235772
SL-16 R/B               
1 25400U 98043G   20358.39173894 -.00000007  00000-0  15623-4 0  9996
2 25400  98.6257 290.9673 0010605 139.4353 220.7619 14.25467047167939
SL-16 R/B               
1 25407U 98045B   20358.33226540 -.00000252  00000-0 -10378-3 0  9990
2 25407  71.0096 220.6495 0006084  30.0710 330.0762 14.15830875157815
ISS (ZARYA)             
1 25544U 98067A   20358.69391463  .00002015  00000-0  44384-4 0  9994
2 25544  51.6443 130.7890 0001492 153.5658 345.4019 15.49220084261394
SL-8 R/B                
1 25723U 99022C   20358.43207268  .00065287  00000-0  26204-3 0  9996
2 25723  48.4101  39.7042 0000848 280.4054  79.6808 15.85752784207512
CZ-4B R/B               
1 25732U 99025C   20358.32736409 -.00000023  00000-0  10680-4 0  9991
2 25732  98.9256  28.1848 0037859  33.5892 337.1539 14.17685890118586
OKEAN-O                 
1 25860U 99039A   20358.49459205  .00000079  00000-0  18938-4 0  9996
2 25860  98.2012  20.6557 0001280  66.0864 294.0479 14.76700698153418
SL-16 R/B               
1 25861U 99039B   20358.49607764  .00000069  00000-0  17007-4 0  9997
2 25861  98.2094   4.4032 0014304 271.0296 249.2515 14.78610930155556
DELTA 2 R/B             
1 25876U 99041E   20358.29768546 -.00000081  00000-0  26816-4 0  9993
2 25876  51.7651 284.8034 0531268 174.8457 185.8252 14.04490753 95164
